FENGYUN 1C DEB          
1 36243U 99025DVU 17332.41520777  .00001482  00000-0  15719-3 0  9993
2 36243  99.2287 140.5856 0148037  38.7484 322.4233 14.83400557240522
